STARLINK-37975          
1 69707U 26147D   26195.66048643  .00222871  00000+0  11354-2 0  9996
2 69707  97.2829 232.0212 0001181 139.4088 220.7268 15.80803920  3774
STARLINK-37972          
1 69708U 26147E   26195.65973747  .00202491  00000+0  10342-2 0  9990
2 69708  97.2829 232.0218 0001243 117.0207 243.1188 15.80801965  3772
STARLINK-37963          
1 69709U 26147F   26195.65898533  .00195584  00000+0  99955-3 0  9992
2 69709  97.2827 232.0220 0000944  85.6930 274.4446 15.80806094  3776
STARLINK-37969          
1 69710U 26147G   26195.65823390  .00206625  00000+0  10542-2 0  9996
2 69710  97.2829 232.0243 0001205 124.7622 235.3760 15.80813697  3771
STARLINK-37956          
1 69711U 26147H   26195.65748360  .00061627  00000+0  31968-3 0  9997
2 69711  97.2831 232.0255 0001378 111.1102 249.0313 15.80851637  3774
STARLINK-38043          
1 69712U 26147J   26195.65672798  .00026108  00000+0  13640-3 0  9991
2 69712  97.2833 232.0267 0000944 159.3166 200.8141 15.80853721  3772
STARLINK-38020          
1 69713U 26147K   26195.65598027  .00168770  00000+0  86546-3 0  9991
2 69713  97.2827 232.0273 0001345 100.7821 259.3599 15.80801646  3772
STARLINK-38059          
1 69714U 26147L   26195.65522144  .00230809  00000+0  11751-2 0  9997
2 69714  97.2837 232.0297 0001791 189.3646 170.7589 15.80798242  3775
STARLINK-38061          
1 69715U 26147M   26195.65447976  .00099773  00000+0  51620-3 0  9990
2 69715  97.2836 232.0302 0001729  53.9737 306.1691 15.80793663  3771
STARLINK-38060          
1 69716U 26147N   26195.65372592  .00213011  00000+0  10862-2 0  9997
2 69716  97.2828 232.0301 0001237  61.0222 299.1170 15.80809600  3777
STARLINK-38040          
1 69717U 26147P   26195.65297470  .00160726  00000+0  82484-3 0  9993
2 69717  97.2821 232.0319 0001231  72.9872 287.1531 15.80806351  3774
STARLINK-37989          
1 69718U 26147Q   26195.65221852  .00156422  00000+0  80355-3 0  9998
2 69718  97.2833 232.0333 0000498 130.4893 229.6419 15.80796037  3776
STARLINK-38039          
1 69719U 26147R   26195.58816970  .00172690  00000+0  88467-3 0  9999
2 69719  97.2849 231.9673 0001689  92.0878 268.0584 15.80813276  3762
STARLINK-38003          
1 69720U 26147S   26195.65072226  .00206420  00000+0  10541-2 0  9993
2 69720  97.2825 232.0340 0001884  63.0318 297.1143 15.80794434  3774
STARLINK-38014          
1 69721U 26147T   26195.64997031  .00168906  00000+0  86579-3 0  9994
2 69721  97.2829 232.0351 0001626  61.9873 298.1560 15.80810319  3773
STARLINK-37915          
1 69722U 26147U   26195.64921825  .00148738  00000+0  76443-3 0  9993
2 69722  97.2822 232.0369 0001625  69.3380 290.8063 15.80805896  3771
STARLINK-38007          
1 69723U 26147V   26195.65161266  .00159545  00000+0  81926-3 0  9990
2 69723  97.2830 232.0323 0001604  76.8230 283.3217 15.80796264  3771
STARLINK-38008          
1 69724U 26147W   26195.64771303  .00186324  00000+0  95380-3 0  9993
2 69724  97.2827 232.0386 0001107  98.3501 261.7892 15.80794238  3773
STARLINK-38021          
1 69725U 26147X   26195.64695943  .00215598  00000+0  10999-2 0  9997
2 69725  97.2825 232.0402 0000767  96.7120 263.4235 15.80793137  3778
STARLINK-38015          
1 69726U 26147Y   26195.64620976  .00149087  00000+0  76683-3 0  9994
2 69726  97.2835 232.0416 0001645 138.9635 221.1757 15.80787696  3774
STARLINK-38010          
1 69727U 26147Z   26195.85763155  .00095595  00000+0  63444-3 0  9990
2 69727  97.2837 232.2124 0000998  85.6330 274.5049 15.75197197  3800
SXM-11                  
1 69728U 26148A   26195.94845751  .00000002  00000+0  00000+0 0  9999
2 69728   0.1130 265.3451 0001916 177.0363  71.3659  1.00269271   323
HAIYANG-2E              
1 69737U 26149A   26194.63575019 -.00000091  00000+0 -45287-4 0  9993
2 69737  99.3454 201.5813 0001579  93.5996 266.5337 13.79314717  1614
CZ-4B R/B               
1 69738U 26149B   26194.65226973  .00000049  00000+0  33597-4 0  9990
2 69738  99.3217 202.5607 0198196 334.5310  24.6204 14.30067210  1914
STARLINK-38033          
1 69739U 26150A   26195.51484787  .00122348  00000+0  62859-3 0  9997
2 69739  97.2826  33.8365 0001135  95.9585 264.1812 15.80884762  3218
STARLINK-38076          
1 69740U 26150B   26195.91670139 -.00004597  00000+0 -29989-4 0  9996
2 69740  97.2840  34.2190 0001087  85.3027 299.9990 15.75174407  3256
STARLINK-38074          
1 69741U 26150C   26195.51227107  .00189204  00000+0  96266-3 0  9994
2 69741  97.2827  33.8404 0001235  93.6695 266.4715 15.80920264  3219
STARLINK-38041          
1 69742U 26150D   26195.51157686  .00197630  00000+0  10043-2 0  9999
2 69742  97.2822  33.8415 0001394 105.4157 254.7266 15.80925154  3212
STARLINK-38087          
1 69743U 26150E   26195.51076010  .00260515  00000+0  13123-2 0  9996
2 69743  97.2822  33.8425 0001192  92.4276 267.7129 15.80954886  3213
STARLINK-38078          
1 69744U 26150F   26195.51000587  .00127973  00000+0  65750-3 0  9997
2 69744  97.2827  33.8434 0001219 109.6009 250.5391 15.80869178  3214
