OBJECT_NAME,OBJECT_ID,EPOCH,MEAN_MOTION,ECCENTRICITY,INCLINATION,RA_OF_ASC_NODE,ARG_OF_PERICENTER,MEAN_ANOMALY,EPHEMERIS_TYPE,CLASSIFICATION_TYPE,NORAD_CAT_ID,ELEMENT_SET_NO,REV_AT_EPOCH,BSTAR,MEAN_MOTION_DOT,MEAN_MOTION_DDOT
STARLINK-37975,2026-147D,2026-07-14T15:51:06.027552,15.80803920,.00011811,97.2829,232.0212,139.4088,220.7268,0,U,69707,999,377,.11354296E-2,.222871E-2,0
STARLINK-37972,2026-147E,2026-07-14T15:50:01.317408,15.80801965,.00012433,97.2829,232.0218,117.0207,243.1188,0,U,69708,999,377,.10341959E-2,.202491E-2,0
STARLINK-37963,2026-147F,2026-07-14T15:48:56.332512,15.80806094,.00009445,97.2827,232.0220,85.6930,274.4446,0,U,69709,999,377,.99955186E-3,.195584E-2,0
STARLINK-37969,2026-147G,2026-07-14T15:47:51.408960,15.80813697,.00012051,97.2829,232.0243,124.7622,235.3760,0,U,69710,999,377,.10542287E-2,.206625E-2,0
STARLINK-37956,2026-147H,2026-07-14T15:46:46.583040,15.80851637,.00013782,97.2831,232.0255,111.1102,249.0313,0,U,69711,999,377,.31968327E-3,.61627E-3,0
STARLINK-38043,2026-147J,2026-07-14T15:45:41.297472,15.80853721,.00009447,97.2833,232.0267,159.3166,200.8141,0,U,69712,999,377,.13640349E-3,.26108E-3,0
STARLINK-38020,2026-147K,2026-07-14T15:44:36.695328,15.80801646,.00013458,97.2827,232.0273,100.7821,259.3599,0,U,69713,999,377,.86546414E-3,.16877E-2,0
STARLINK-38059,2026-147L,2026-07-14T15:43:31.132416,15.80798242,.00017915,97.2837,232.0297,189.3646,170.7589,0,U,69714,999,377,.1175058E-2,.230809E-2,0
STARLINK-38061,2026-147M,2026-07-14T15:42:27.051264,15.80793663,.00017294,97.2836,232.0302,53.9737,306.1691,0,U,69715,999,377,.51619664E-3,.99773E-3,0
STARLINK-38060,2026-147N,2026-07-14T15:41:21.919488,15.80809600,.00012377,97.2828,232.0301,61.0222,299.1170,0,U,69716,999,377,.10861869E-2,.213011E-2,0
STARLINK-38040,2026-147P,2026-07-14T15:40:17.014080,15.80806351,.00012316,97.2821,232.0319,72.9872,287.1531,0,U,69717,999,377,.82484057E-3,.160726E-2,0
STARLINK-37989,2026-147Q,2026-07-14T15:39:11.680128,15.80796037,.00004984,97.2833,232.0333,130.4893,229.6419,0,U,69718,999,377,.80354944E-3,.156422E-2,0
STARLINK-38039,2026-147R,2026-07-14T14:06:57.862080,15.80813276,.0001689,97.2849,231.9673,92.0878,268.0584,0,U,69719,999,376,.88467E-3,.17269E-2,0
STARLINK-38003,2026-147S,2026-07-14T15:37:02.403264,15.80794434,.00018842,97.2825,232.0340,63.0318,297.1143,0,U,69720,999,377,.10541071E-2,.20642E-2,0
STARLINK-38014,2026-147T,2026-07-14T15:35:57.434784,15.80810319,.00016262,97.2829,232.0351,61.9873,298.1560,0,U,69721,999,377,.86579194E-3,.168906E-2,0
STARLINK-37915,2026-147U,2026-07-14T15:34:52.456800,15.80805896,.00016253,97.2822,232.0369,69.3380,290.8063,0,U,69722,999,377,.76443089E-3,.148738E-2,0
STARLINK-38007,2026-147V,2026-07-14T15:38:19.333824,15.80796264,.00016041,97.2830,232.0323,76.8230,283.3217,0,U,69723,999,377,.81926146E-3,.159545E-2,0
STARLINK-38008,2026-147W,2026-07-14T15:32:42.405792,15.80794238,.0001107,97.2827,232.0386,98.3501,261.7892,0,U,69724,999,377,.95379806E-3,.186324E-2,0
STARLINK-38021,2026-147X,2026-07-14T15:31:37.294752,15.80793137,.00007676,97.2825,232.0402,96.7120,263.4235,0,U,69725,999,377,.10998606E-2,.215598E-2,0
STARLINK-38015,2026-147Y,2026-07-14T15:30:32.523264,15.80787696,.00016452,97.2835,232.0416,138.9635,221.1757,0,U,69726,999,377,.76682528E-3,.149087E-2,0
STARLINK-38010,2026-147Z,2026-07-14T20:34:59.365920,15.75197197,.00009983,97.2837,232.2124,85.6330,274.5049,0,U,69727,999,380,.63443802E-3,.95595E-3,0
SXM-11,2026-148A,2026-07-14T22:45:46.728864,1.00269271,.00019167,0.1130,265.3451,177.0363,71.3659,0,U,69728,999,32,0,.2E-7,0
HAIYANG-2E,2026-149A,2026-07-13T15:15:28.816416,13.79314717,.0001579,99.3454,201.5813,93.5996,266.5337,0,U,69737,999,161,-.45287E-4,-.91E-6,0
CZ-4B R/B,2026-149B,2026-07-13T15:39:16.104672,14.30067210,.01981969,99.3217,202.5607,334.5310,24.6204,0,U,69738,999,191,.33596551E-4,.49E-6,0
STARLINK-38033,2026-150A,2026-07-14T12:21:22.855968,15.80884762,.0001135,97.2826,33.8365,95.9585,264.1812,0,U,69739,999,321,.62859443E-3,.122348E-2,0
STARLINK-38076,2026-150B,2026-07-14T22:00:03.000096,15.75174407,.00010876,97.2840,34.2190,85.3027,299.9990,0,U,69740,999,325,-.29989412E-4,-.4597E-4,0
STARLINK-38074,2026-150C,2026-07-14T12:17:40.220448,15.80920264,.00012353,97.2827,33.8404,93.6695,266.4715,0,U,69741,999,321,.96265972E-3,.189204E-2,0
STARLINK-38041,2026-150D,2026-07-14T12:16:40.240704,15.80925154,.00013947,97.2822,33.8415,105.4157,254.7266,0,U,69742,999,321,.10042928E-2,.19763E-2,0
STARLINK-38087,2026-150E,2026-07-14T12:15:29.672640,15.80954886,.00011929,97.2822,33.8425,92.4276,267.7129,0,U,69743,999,321,.13122524E-2,.260515E-2,0
STARLINK-38078,2026-150F,2026-07-14T12:14:24.507168,15.80869178,.00012196,97.2827,33.8434,109.6009,250.5391,0,U,69744,999,321,.65749836E-3,.127973E-2,0
